<?xml version="1.0" encoding="UTF-8"?>
<kml xmlns="http://www.opengis.net/kml/2.2"><Document>
<name>Rede de Fibra Optica - Fazenda Sagrada Familia</name>
<Style id="backbone"><LineStyle><color>ff00d0ff</color><width>7</width></LineStyle></Style>
<Style id="porteira"><LineStyle><color>ff303bff</color><width>4</width></LineStyle></Style>
<Style id="pomar"><LineStyle><color>ff008cff</color><width>4</width></LineStyle></Style>
<Style id="piscina"><LineStyle><color>ffaa3dff</color><width>4</width></LineStyle></Style>
<Style id="motor"><LineStyle><color>ffffc800</color><width>4</width></LineStyle></Style>
<Style id="sede"><LineStyle><color>ffff6eaa</color><width>4</width></LineStyle></Style>
<Style id="mae"><LineStyle><color>ff6edc28</color><width>4</width></LineStyle></Style>
<Style id="lazer"><LineStyle><color>ff00f0c8</color><width>4</width></LineStyle></Style>
<Style id="rj45"><LineStyle><color>ffffffff</color><width>3</width></LineStyle></Style>
<Style id="rot_ativo"><IconStyle><color>ffff8223</color><Icon><href>http://maps.google.com/mapfiles/kml/paddle/blu-circle.png</href></Icon></IconStyle></Style>
<Style id="rot_obra"><IconStyle><color>ff4646ff</color><Icon><href>http://maps.google.com/mapfiles/kml/paddle/red-circle.png</href></Icon></IconStyle></Style>
<Style id="cto"><IconStyle><color>ff6ebe00</color><scale>1.3</scale><Icon><href>http://maps.google.com/mapfiles/kml/shapes/square.png</href></Icon></IconStyle></Style>
<Style id="poste"><IconStyle><scale>0.55</scale><Icon><href>http://maps.google.com/mapfiles/kml/shapes/placemark_circle.png</href></Icon></IconStyle></Style>
<Style id="cam_kapbom"><IconStyle><color>ff3cd2ff</color><Icon><href>http://maps.google.com/mapfiles/kml/shapes/camera.png</href></Icon></IconStyle></Style>
<Style id="cam_e27"><IconStyle><color>ff78dcff</color><scale>0.9</scale><Icon><href>http://maps.google.com/mapfiles/kml/shapes/camera.png</href></Icon></IconStyle></Style>
<Folder><name>Ligacoes (uma cor cada)</name>
<Placemark><name>Backbone (Starlink → CTO)</name><description>Starlink → Rancho → P1·P2·P3·P4·P5·P6·P7·P8 → CTO (P9)</description><styleUrl>#backbone</styleUrl><LineString><tessellate>1</tessellate><coordinates>-45.98857358781736,-21.35440008645269,0 -45.98851647255972,-21.35428287231589,0 -45.98868059349096,-21.35450049562633,0 -45.98885593652164,-21.35436095821785,0 -45.98906166860465,-21.35421232308776,0 -45.9890789770198,-21.35401357589824,0 -45.98904729789601,-21.35375894113647,0 -45.98896743892824,-21.35317869372432,0 -45.98925025525992,-21.35303342324684,0 -45.98963298877072,-21.35284203389719,0 -45.98991992842048,-21.35266884561628,0</coordinates></LineString></Placemark>
<Placemark><name>Ligação Porteira</name><description>CTO (P9) → P10·P11·P12·P13·P14·P15·P16·P17·P18 → P19</description><styleUrl>#porteira</styleUrl><LineString><tessellate>1</tessellate><coordinates>-45.98991992842048,-21.35266884561628,0 -45.99011160660755,-21.35290960479607,0 -45.99031024768407,-21.35317121611656,0 -45.99012546615439,-21.35355275854047,0 -45.98992436609476,-21.35395688669237,0 -45.9896596280334,-21.35452129447635,0 -45.98936247259595,-21.35483242978097,0 -45.98908733010949,-21.35514349755645,0 -45.98880807467447,-21.3554415339079,0 -45.98852066425261,-21.35513071897358,0 -45.98825054872155,-21.35483510781873,0</coordinates></LineString></Placemark>
<Placemark><name>Ligação Pomar</name><description>CTO (P9) → P10·P11·P12·P13 → P14</description><styleUrl>#pomar</styleUrl><LineString><tessellate>1</tessellate><coordinates>-45.98991992842048,-21.35266884561628,0 -45.99011160660755,-21.35290960479607,0 -45.99031024768407,-21.35317121611656,0 -45.99012546615439,-21.35355275854047,0 -45.98992436609476,-21.35395688669237,0 -45.9896596280334,-21.35452129447635,0</coordinates></LineString></Placemark>
<Placemark><name>Ligação Piscina</name><description>CTO (P9) → P10·P11 → P12</description><styleUrl>#piscina</styleUrl><LineString><tessellate>1</tessellate><coordinates>-45.98991992842048,-21.35266884561628,0 -45.99011160660755,-21.35290960479607,0 -45.99031024768407,-21.35317121611656,0 -45.99012546615439,-21.35355275854047,0</coordinates></LineString></Placemark>
<Placemark><name>Ligação Motor</name><description>CTO (P9) → P8·P7·P6 → P20</description><styleUrl>#motor</styleUrl><LineString><tessellate>1</tessellate><coordinates>-45.98991992842048,-21.35266884561628,0 -45.98963298877072,-21.35284203389719,0 -45.98925025525992,-21.35303342324684,0 -45.98896743892824,-21.35317869372432,0 -45.98892529983523,-21.3526461854503,0</coordinates></LineString></Placemark>
<Placemark><name>Ligação Sede</name><description>CTO (P9) → P8·P7·P6 → Sede</description><styleUrl>#sede</styleUrl><LineString><tessellate>1</tessellate><coordinates>-45.98991992842048,-21.35266884561628,0 -45.98963298877072,-21.35284203389719,0 -45.98925025525992,-21.35303342324684,0 -45.98896743892824,-21.35317869372432,0 -45.98867006307438,-21.3537348719604,0</coordinates></LineString></Placemark>
<Placemark><name>Ligação Mãe</name><description>CTO (P9) → P10 → Mãe</description><styleUrl>#mae</styleUrl><LineString><tessellate>1</tessellate><coordinates>-45.98991992842048,-21.35266884561628,0 -45.99011160660755,-21.35290960479607,0 -45.98995021862738,-21.3528730401115,0</coordinates></LineString></Placemark>
<Placemark><name>Ligação Lazer</name><description>CTO (P9) → Lazer (direto)</description><styleUrl>#lazer</styleUrl><LineString><tessellate>1</tessellate><coordinates>-45.98991992842048,-21.35266884561628,0 -45.98974910941658,-21.35265317092606,0</coordinates></LineString></Placemark>
<Placemark><name>CTO — cabo RJ45</name><description>no próprio poste P9 (cabo RJ45, sem lançamento)</description><styleUrl>#rj45</styleUrl><Point><coordinates>-45.98991992842048,-21.35266884561628,0</coordinates></Point></Placemark>
</Folder>
<Folder><name>Roteadores (Mercusys MR60X)</name>
<Placemark><name>Roteador PORTEIRA</name><description>poste P19 - em operacao - ligacao porteira - conversor tipo ? - switch porta a definir</description><styleUrl>#rot_ativo</styleUrl><Point><coordinates>-45.98825054872155,-21.35483510781873,0</coordinates></Point></Placemark>
<Placemark><name>Roteador POMAR</name><description>poste P14 - em operacao - ligacao pomar - conversor tipo ? - switch porta a definir</description><styleUrl>#rot_ativo</styleUrl><Point><coordinates>-45.9896596280334,-21.35452129447635,0</coordinates></Point></Placemark>
<Placemark><name>Roteador PISCINA</name><description>poste P12 - em operacao - ligacao piscina - conversor tipo ? - switch porta a definir</description><styleUrl>#rot_ativo</styleUrl><Point><coordinates>-45.99012546615439,-21.35355275854047,0</coordinates></Point></Placemark>
<Placemark><name>Roteador CTO</name><description>poste P9 (na caixa CTO) - em operacao - ligacao rj45 - RJ45 (sem fibra) - switch porta RJ45-1 (tipo —)</description><styleUrl>#rot_ativo</styleUrl><Point><coordinates>-45.98991992842048,-21.35266884561628,0</coordinates></Point></Placemark>
<Placemark><name>Roteador MOTOR</name><description>poste P20 - em operacao - ligacao motor - conversor tipo ? - switch porta a definir</description><styleUrl>#rot_ativo</styleUrl><Point><coordinates>-45.98892529983523,-21.3526461854503,0</coordinates></Point></Placemark>
<Placemark><name>Roteador MÃE</name><description>nó de rede - em operacao - ligacao mae - conversor tipo ? - switch porta a definir</description><styleUrl>#rot_ativo</styleUrl><Point><coordinates>-45.98995021862738,-21.3528730401115,0</coordinates></Point></Placemark>
<Placemark><name>Roteador SEDE</name><description>nó de rede - em operacao - ligacao sede - conversor tipo ? - switch porta a definir</description><styleUrl>#rot_ativo</styleUrl><Point><coordinates>-45.98867006307438,-21.3537348719604,0</coordinates></Point></Placemark>
<Placemark><name>Roteador RANCHO</name><description>nó — head-end do Starlink - em operacao - ligacao backbone - conversor tipo A - switch porta 5 (tipo B)</description><styleUrl>#rot_ativo</styleUrl><Point><coordinates>-45.98851647255972,-21.35428287231589,0</coordinates></Point></Placemark>
<Placemark><name>Roteador LAZER</name><description>nó de rede - em operacao - ligacao lazer - conversor tipo ? - switch porta a definir</description><styleUrl>#rot_ativo</styleUrl><Point><coordinates>-45.98974910941658,-21.35265317092606,0</coordinates></Point></Placemark>
</Folder>
<Placemark><name>Caixa CTO (poste P9)</name><description>Ponto de distribuicao - switch de fibra 8 portas fibra + 2 portas RJ45</description><styleUrl>#cto</styleUrl><Point><coordinates>-45.98991992842048,-21.35266884561628,0</coordinates></Point></Placemark>
<Placemark><name>Starlink (origem do sinal)</name><styleUrl>#cto</styleUrl><Point><coordinates>-45.98857358781736,-21.35440008645269,0</coordinates></Point></Placemark>
<Folder><name>Postes (P1..P20 na sequencia da fibra)</name>
<Placemark><name>P1</name><styleUrl>#poste</styleUrl><Point><coordinates>-45.98868059349096,-21.35450049562633,0</coordinates></Point></Placemark>
<Placemark><name>P2</name><styleUrl>#poste</styleUrl><Point><coordinates>-45.98885593652164,-21.35436095821785,0</coordinates></Point></Placemark>
<Placemark><name>P3</name><styleUrl>#poste</styleUrl><Point><coordinates>-45.98906166860465,-21.35421232308776,0</coordinates></Point></Placemark>
<Placemark><name>P4</name><styleUrl>#poste</styleUrl><Point><coordinates>-45.9890789770198,-21.35401357589824,0</coordinates></Point></Placemark>
<Placemark><name>P5</name><styleUrl>#poste</styleUrl><Point><coordinates>-45.98904729789601,-21.35375894113647,0</coordinates></Point></Placemark>
<Placemark><name>P6</name><styleUrl>#poste</styleUrl><Point><coordinates>-45.98896743892824,-21.35317869372432,0</coordinates></Point></Placemark>
<Placemark><name>P7</name><styleUrl>#poste</styleUrl><Point><coordinates>-45.98925025525992,-21.35303342324684,0</coordinates></Point></Placemark>
<Placemark><name>P8</name><styleUrl>#poste</styleUrl><Point><coordinates>-45.98963298877072,-21.35284203389719,0</coordinates></Point></Placemark>
<Placemark><name>P9</name><styleUrl>#poste</styleUrl><Point><coordinates>-45.98991992842048,-21.35266884561628,0</coordinates></Point></Placemark>
<Placemark><name>P10</name><styleUrl>#poste</styleUrl><Point><coordinates>-45.99011160660755,-21.35290960479607,0</coordinates></Point></Placemark>
<Placemark><name>P11</name><styleUrl>#poste</styleUrl><Point><coordinates>-45.99031024768407,-21.35317121611656,0</coordinates></Point></Placemark>
<Placemark><name>P12</name><styleUrl>#poste</styleUrl><Point><coordinates>-45.99012546615439,-21.35355275854047,0</coordinates></Point></Placemark>
<Placemark><name>P13</name><styleUrl>#poste</styleUrl><Point><coordinates>-45.98992436609476,-21.35395688669237,0</coordinates></Point></Placemark>
<Placemark><name>P14</name><styleUrl>#poste</styleUrl><Point><coordinates>-45.9896596280334,-21.35452129447635,0</coordinates></Point></Placemark>
<Placemark><name>P15</name><styleUrl>#poste</styleUrl><Point><coordinates>-45.98936247259595,-21.35483242978097,0</coordinates></Point></Placemark>
<Placemark><name>P16</name><styleUrl>#poste</styleUrl><Point><coordinates>-45.98908733010949,-21.35514349755645,0</coordinates></Point></Placemark>
<Placemark><name>P17</name><styleUrl>#poste</styleUrl><Point><coordinates>-45.98880807467447,-21.3554415339079,0</coordinates></Point></Placemark>
<Placemark><name>P18</name><styleUrl>#poste</styleUrl><Point><coordinates>-45.98852066425261,-21.35513071897358,0</coordinates></Point></Placemark>
<Placemark><name>P19</name><styleUrl>#poste</styleUrl><Point><coordinates>-45.98825054872155,-21.35483510781873,0</coordinates></Point></Placemark>
<Placemark><name>P20</name><styleUrl>#poste</styleUrl><Point><coordinates>-45.98892529983523,-21.3526461854503,0</coordinates></Point></Placemark>
</Folder>
<Folder><name>Cameras de seguranca (Wi-Fi 360)</name>
<Placemark><name>Camera Porteira</name><description>Câmera IP para poste · Wi-Fi · 360° · 1080p HD · visão noturna · 3 antenas - poste P19 - Wi-Fi: Roteador PORTEIRA (estimado)</description><styleUrl>#cam_kapbom</styleUrl><Point><coordinates>-45.98825054872155,-21.35483510781873,0</coordinates></Point></Placemark>
<Placemark><name>Camera Galinheiro</name><description>Câmera IP para poste · Wi-Fi · 360° · 1080p HD · visão noturna · 3 antenas - poste P1 - Wi-Fi: Roteador RANCHO (~30 m, estimado)</description><styleUrl>#cam_kapbom</styleUrl><Point><coordinates>-45.98868059349096,-21.35450049562633,0</coordinates></Point></Placemark>
<Placemark><name>Camera Chuchu</name><description>Câmera Wi-Fi de soquete de lâmpada E27 · 360° · HD · visão noturna · branca - poste P17 - Wi-Fi: Roteador PORTEIRA (~89 m, estimado)</description><styleUrl>#cam_e27</styleUrl><Point><coordinates>-45.98880807467447,-21.3554415339079,0</coordinates></Point></Placemark>
<Placemark><name>Camera Pomar Cima</name><description>Câmera Wi-Fi de soquete de lâmpada E27 · 360° · HD · visão noturna · branca - poste P14 - Wi-Fi: Roteador POMAR (estimado)</description><styleUrl>#cam_e27</styleUrl><Point><coordinates>-45.9896596280334,-21.35452129447635,0</coordinates></Point></Placemark>
<Placemark><name>Camera Pomar Baixo</name><description>Câmera Wi-Fi de soquete de lâmpada E27 · 360° · HD · visão noturna · branca - poste P14 - Wi-Fi: Roteador POMAR (estimado)</description><styleUrl>#cam_e27</styleUrl><Point><coordinates>-45.9896596280334,-21.35452129447635,0</coordinates></Point></Placemark>
<Placemark><name>Camera Piscina</name><description>Câmera Wi-Fi de soquete de lâmpada E27 · 360° · HD · visão noturna · branca - poste P11 - Wi-Fi: Roteador PISCINA (~47 m, estimado)</description><styleUrl>#cam_e27</styleUrl><Point><coordinates>-45.99031024768407,-21.35317121611656,0</coordinates></Point></Placemark>
<Placemark><name>Camera Mãe Lateral</name><description>Câmera Wi-Fi de soquete de lâmpada E27 · 360° · HD · visão noturna · branca - poste P9 - Wi-Fi: Roteador MÃE</description><styleUrl>#cam_e27</styleUrl><Point><coordinates>-45.98991992842048,-21.35266884561628,0</coordinates></Point></Placemark>
<Placemark><name>Camera Mãe Frente</name><description>Câmera Wi-Fi de soquete de lâmpada E27 · 360° · HD · visão noturna · branca - poste P8 - Wi-Fi: Roteador MÃE</description><styleUrl>#cam_e27</styleUrl><Point><coordinates>-45.98963298877072,-21.35284203389719,0</coordinates></Point></Placemark>
<Placemark><name>Camera Motor</name><description>Câmera Wi-Fi de soquete de lâmpada E27 · 360° · HD · visão noturna · branca - poste P20 - Wi-Fi: Roteador MOTOR (estimado)</description><styleUrl>#cam_e27</styleUrl><Point><coordinates>-45.98892529983523,-21.3526461854503,0</coordinates></Point></Placemark>
<Placemark><name>Camera Chiqueiro</name><description>Câmera Wi-Fi de soquete de lâmpada E27 · 360° · HD · visão noturna · branca - poste P6 - Wi-Fi: Roteador MOTOR (~59 m, estimado)</description><styleUrl>#cam_e27</styleUrl><Point><coordinates>-45.98896743892824,-21.35317869372432,0</coordinates></Point></Placemark>
<Placemark><name>Camera Sede</name><description>Câmera Wi-Fi de soquete de lâmpada E27 · 360° · HD · visão noturna · branca - poste P5 - Wi-Fi: Roteador SEDE (~39 m, estimado)</description><styleUrl>#cam_e27</styleUrl><Point><coordinates>-45.98904729789601,-21.35375894113647,0</coordinates></Point></Placemark>
<Placemark><name>Camera Rancho Entrada</name><description>Câmera Wi-Fi de soquete de lâmpada E27 · 360° · HD · visão noturna · branca - -21.354269, -45.988450 - Wi-Fi: Roteador RANCHO (estimado)</description><styleUrl>#cam_e27</styleUrl><Point><coordinates>-45.98845,-21.354269444444444,0</coordinates></Point></Placemark>
<Placemark><name>Camera Cozinha Entrada</name><description>Câmera Wi-Fi de soquete de lâmpada E27 · 360° · HD · visão noturna · branca - -21.354381, -45.988564 - Wi-Fi: Roteador RANCHO (~12 m, estimado)</description><styleUrl>#cam_e27</styleUrl><Point><coordinates>-45.98856388888889,-21.354380555555558,0</coordinates></Point></Placemark>
<Placemark><name>Camera Mãe Cozinha</name><description>Câmera Wi-Fi de soquete de lâmpada E27 · 360° · HD · visão noturna · branca - -21.352767, -45.989903 - Wi-Fi: Roteador MÃE</description><styleUrl>#cam_e27</styleUrl><Point><coordinates>-45.98990277777778,-21.352766666666668,0</coordinates></Point></Placemark>
<Placemark><name>Camera Mãe Varanda</name><description>Câmera Wi-Fi de soquete de lâmpada E27 · 360° · HD · visão noturna · branca - -21.352886, -45.989861 - Wi-Fi: Roteador MÃE</description><styleUrl>#cam_e27</styleUrl><Point><coordinates>-45.98986111111111,-21.35288611111111,0</coordinates></Point></Placemark>
<Placemark><name>Camera Lazer Cozinha</name><description>Câmera Wi-Fi de soquete de lâmpada E27 · 360° · HD · visão noturna · branca - -21.352661, -45.989750 - Wi-Fi: Roteador LAZER (estimado)</description><styleUrl>#cam_e27</styleUrl><Point><coordinates>-45.98975,-21.35266111111111,0</coordinates></Point></Placemark>
<Placemark><name>Camera Lazer Sala</name><description>Câmera Wi-Fi de soquete de lâmpada E27 · 360° · HD · visão noturna · branca - -21.352589, -45.989775 - Wi-Fi: Roteador LAZER (~8 m, estimado)</description><styleUrl>#cam_e27</styleUrl><Point><coordinates>-45.989775,-21.35258888888889,0</coordinates></Point></Placemark>
</Folder>
</Document></kml>